NORAD_CAT_ID,OBJECT_NAME,OBJECT_TYPE,EPOCH,MEAN_MOTION,ECCENTRICITY,INCLINATION,RA_OF_ASC_NODE,ARG_OF_PERICENTER,MEAN_ANOMALY,BSTAR,MEAN_MOTION_DOT,MEAN_MOTION_DDOT,TLE_LINE0,TLE_LINE1,TLE_LINE2,SEMIMAJOR_AXIS,PERIOD,APOGEE,PERIGEE,DECAYED
53575.0,STARLINK-4551,PAYLOAD,2023-04-29 06:13:06,15.08853863,0.0001333,53.2171,67.0322,99.1343,260.98,0.00039396,5.99e-05,0.0,0 STARLINK-4551,1 53575U 22101BA  23119.25910672  .00005990  00000-0  39396-3 0  9995,2 53575  53.2171  67.0322 0001333  99.1343 260.9800 15.08853863 38626,6917.838,95.437,540.625,538.781,0.0
53575.0,STARLINK-4551,PAYLOAD,2023-04-29 20:31:35,15.08842157,0.0001071,53.2179,64.3567,88.2182,271.8932,0.00071411,0.00011096,0.0,0 STARLINK-4551,1 53575U 22101BA  23119.85527264  .00011096  00000-0  71411-3 0  9990,2 53575  53.2179  64.3567 0001071  88.2182 271.8932 15.08842157 38715,6917.874,95.437,540.48,538.998,0.0
53575.0,STARLINK-4551,PAYLOAD,2023-04-30 06:03:54,15.08845373,0.0001185,53.2178,62.5703,99.1698,260.9428,0.00061498,9.514e-05,0.0,0 STARLINK-4551,1 53575U 22101BA  23120.25271238  .00009514  00000-0  61498-3 0  9999,2 53575  53.2178  62.5703 0001185  99.1698 260.9428 15.08845373 39460,6917.864,95.437,540.549,538.909,0.0
53575.0,STARLINK-4551,PAYLOAD,2023-04-30 20:22:23,15.08836022,0.0001389,53.2183,59.8978,90.1186,269.9965,0.00025715,3.807e-05,0.0,0 STARLINK-4551,1 53575U 22101BA  23120.84887770  .00003807  00000-0  25715-3 0  9999,2 53575  53.2183  59.8978 0001389  90.1186 269.9965 15.08836022 38867,6917.893,95.438,540.718,538.797,0.0
53575.0,STARLINK-4551,PAYLOAD,2023-05-01 05:54:41,15.08838316,0.0001197,53.2177,58.1106,91.6217,268.4913,0.00015844,2.235e-05,0.0,0 STARLINK-4551,1 53575U 22101BA  23121.24631784  .00002235  00000-0  15844-3 0  9992,2 53575  53.2177  58.1106 0001197  91.6217 268.4913 15.08838316 39612,6917.886,95.438,540.579,538.922,0.0
53575.0,STARLINK-4551,PAYLOAD,2023-05-02 04:10:05,15.08853712,0.000119,53.2184,53.9466,80.5014,279.6112,0.00030502,4.572e-05,0.0,0 STARLINK-4551,1 53575U 22101BA  23122.17367098  .00004572  00000-0  30502-3 0  9993,2 53575  53.2184  53.9466 0001190  80.5014 279.6112 15.08853712 39068,6917.838,95.437,540.527,538.88,0.0
53575.0,STARLINK-4551,PAYLOAD,2023-05-02 05:45:28,15.08854877,0.0001214,53.2187,53.6496,81.2908,278.8222,0.00039249,5.967e-05,0.0,0 STARLINK-4551,1 53575U 22101BA  23122.23991168  .00005967  00000-0  39249-3 0  9997,2 53575  53.2187  53.6496 0001214  81.2908 278.8222 15.08854877 39761,6917.835,95.437,540.54,538.86,0.0
53575.0,STARLINK-4551,PAYLOAD,2023-05-03 04:00:51,15.08852471,0.0001048,53.2173,49.4872,98.1352,261.9759,0.00023209,3.409e-05,0.0,0 STARLINK-4551,1 53575U 22101BA  23123.16726819  .00003409  00000-0  23209-3 0  9997,2 53575  53.2173  49.4872 0001048  98.1352 261.9759 15.08852471 39218,6917.842,95.437,540.432,538.982,0.0
53575.0,STARLINK-4551,PAYLOAD,2023-05-04 00:40:53,15.08836726,0.0001157,53.2177,45.6252,94.4617,265.6507,-0.0001201,-2.199e-05,0.0,0 STARLINK-4551,1 53575U 22101BA  23124.02839440 -.00002199  00000-0 -12010-3 0  9993,2 53575  53.2177  45.6252 0001157  94.4617 265.6507 15.08836726 39347,6917.89,95.438,540.556,538.955,0.0
53575.0,STARLINK-4551,PAYLOAD,2023-05-04 11:48:35,15.08839137,0.0001452,53.2182,43.5409,78.7485,281.367,-2.777e-05,-7.3e-06,0.0,0 STARLINK-4551,1 53575U 22101BA  23124.49207669 -.00000730  00000-0 -27770-4 0  9995,2 53575  53.2182  43.5409 0001452  78.7485 281.3670 15.08839137 40101,6917.883,95.438,540.753,538.744,0.0
53575.0,STARLINK-4551,PAYLOAD,2023-05-04 18:10:08,15.08836358,0.0001153,53.2179,42.3518,88.834,271.2785,5.5168e-05,5.9e-06,0.0,0 STARLINK-4551,1 53575U 22101BA  23124.75703862  .00000590  00000-0  55168-4 0  9994,2 53575  53.2179  42.3518 0001153  88.8340 271.2785 15.08836358 40146,6917.892,95.438,540.554,538.959,0.0
53575.0,STARLINK-4551,PAYLOAD,2023-05-05 03:42:26,15.0884754,0.0001205,53.2173,40.568,85.8024,274.3106,0.00015482,2.177e-05,0.0,0 STARLINK-4551,1 53575U 22101BA  23125.15447367  .00002177  00000-0  15482-3 0  9991,2 53575  53.2173  40.5680 0001205  85.8024 274.3106 15.08847540 39519,6917.857,95.437,540.556,538.889,0.0
53575.0,STARLINK-4551,PAYLOAD,2023-05-06 00:22:27,15.0884032,0.0001119,53.2179,36.7021,86.801,273.311,0.00014438,2.011e-05,0.0,0 STARLINK-4551,1 53575U 22101BA  23126.01560078  .00002011  00000-0  14438-3 0  9999,2 53575  53.2179  36.7021 0001119  86.8010 273.3110 15.08840320 39648,6917.879,95.438,540.519,538.97,0.0
53575.0,STARLINK-4551,PAYLOAD,2023-05-06 03:33:14,15.08843603,0.0001259,53.2176,36.1067,83.8484,276.2652,0.00021432,3.125e-05,0.0,0 STARLINK-4551,1 53575U 22101BA  23126.14808013  .00003125  00000-0  21432-3 0  9996,2 53575  53.2176  36.1067 0001259  83.8484 276.2652 15.08843603 40356,6917.869,95.437,540.605,538.863,0.0
53575.0,STARLINK-4551,PAYLOAD,2023-05-07 00:13:14,15.08860845,0.0001202,53.2173,32.2403,91.5585,268.5545,0.00044974,6.881e-05,0.0,0 STARLINK-4551,1 53575U 22101BA  23127.00919062  .00006881  00000-0  44974-3 0  9997,2 53575  53.2173  32.2403 0001202  91.5585 268.5545 15.08860845 39798,6917.817,95.436,540.513,538.85,0.0
53575.0,STARLINK-4551,PAYLOAD,2023-05-07 20:53:16,15.08835079,0.0001228,53.2178,28.3748,102.0576,258.0554,1.421e-05,-6.2e-07,0.0,0 STARLINK-4551,1 53575U 22101BA  23127.87032489 -.00000062  00000-0  14210-4 0  9998,2 53575  53.2178  28.3748 0001228 102.0576 258.0554 15.08835079 39927,6917.895,95.438,540.61,538.911,0.0
53575.0,STARLINK-4551,PAYLOAD,2023-05-08 00:04:02,15.08824021,0.0001173,53.2179,27.7808,92.2518,267.8608,-0.00023216,-3.979e-05,0.0,0 STARLINK-4551,1 53575U 22101BA  23128.00280752 -.00003979  00000-0 -23216-3 0  9998,2 53575  53.2179  27.7808 0001173  92.2518 267.8608 15.08824021 39948,6917.929,95.439,540.606,538.983,0.0
53575.0,STARLINK-4551,PAYLOAD,2023-05-08 20:44:03,15.08841226,0.0001249,53.218,23.9141,99.3324,260.781,0.00019768,2.86e-05,0.0,0 STARLINK-4551,1 53575U 22101BA  23128.86392900  .00002860  00000-0  19768-3 0  9994,2 53575  53.2180  23.9141 0001249  99.3324 260.7810 15.08841226 40074,6917.877,95.437,540.606,538.878,0.0
53575.0,STARLINK-4551,PAYLOAD,2023-05-08 22:19:26,15.08843157,0.0001271,53.2173,23.6181,98.2153,261.8983,0.00043492,6.641e-05,0.0,0 STARLINK-4551,1 53575U 22101BA  23128.93016978  .00006641  00000-0  43492-3 0  9992,2 53575  53.2173  23.6181 0001271  98.2153 261.8983 15.08843157 40775,6917.871,95.437,540.615,538.856,0.0
53575.0,STARLINK-4551,PAYLOAD,2023-05-08 23:54:49,15.08851223,0.000123,53.2174,23.321,98.6022,261.511,0.00067212,0.00010428,0.0,0 STARLINK-4551,1 53575U 22101BA  23128.99640817  .00010428  00000-0  67212-3 0  9997,2 53575  53.2174  23.3210 0001230  98.6022 261.5110 15.08851223 40783,6917.846,95.437,540.562,538.86,0.0
53575.0,STARLINK-4551,PAYLOAD,2023-05-10 02:56:22,15.08858729,0.0001224,53.2172,18.2673,92.8558,267.2574,0.00046756,7.165e-05,0.0,0 STARLINK-4551,1 53575U 22101BA  23130.12248320  .00007165  00000-0  46756-3 0  9992,2 53575  53.2172  18.2673 0001224  92.8558 267.2574 15.08858729 40954,6917.823,95.436,540.535,538.841,0.0
53575.0,STARLINK-4551,PAYLOAD,2023-05-10 23:36:23,15.0884707,0.0001582,53.2171,14.4039,73.1599,286.9567,7.6131e-05,9.24e-06,0.0,0 STARLINK-4551,1 53575U 22101BA  23130.98360609  .00000924  00000-0  76131-4 0  9998,2 53575  53.2171  14.4039 0001582  73.1599 286.9567 15.08847070 40396,6917.859,95.437,540.818,538.629,0.0
53575.0,STARLINK-4551,PAYLOAD,2023-05-11 18:41:01,15.08840229,0.0001121,53.2158,10.8315,111.5077,248.6035,-2.0389e-05,-6.12e-06,0.0,0 STARLINK-4551,1 53575U 22101BA  23131.77848460 -.00000612  00000-0 -20389-4 0  9992,2 53575  53.2158  10.8315 0001121 111.5077 248.6035 15.08840229 40513,6917.88,95.438,540.52,538.969,0.0
53575.0,STARLINK-4551,PAYLOAD,2023-05-11 23:27:10,15.08839289,0.0001196,53.216,9.9396,87.9235,272.1894,1.9778e-05,2.7e-07,0.0,0 STARLINK-4551,1 53575U 22101BA  23131.97720686  .00000027  00000-0  19778-4 0  9991,2 53575  53.2160   9.9396 0001196  87.9235 272.1894 15.08839289 41237,6917.883,95.438,540.575,538.92,0.0
53575.0,STARLINK-4551,PAYLOAD,2023-05-12 21:42:34,15.08849127,0.0001163,53.2158,5.7762,96.9802,263.1322,0.00023857,3.512e-05,0.0,0 STARLINK-4551,1 53575U 22101BA  23132.90456557  .00003512  00000-0  23857-3 0  9992,2 53575  53.2158   5.7762 0001163  96.9802 263.1322 15.08849127 40685,6917.852,95.437,540.522,538.913,0.0
53575.0,STARLINK-4551,PAYLOAD,2023-05-13 00:53:20,15.0885868,0.0001206,53.2159,5.1825,87.1211,272.9919,0.00056249,8.68e-05,0.0,0 STARLINK-4551,1 53575U 22101BA  23133.03704340  .00008680  00000-0  56249-3 0  9995,2 53575  53.2159   5.1825 0001206  87.1211 272.9919 15.08858680 40701,6917.823,95.436,540.523,538.854,0.0
53575.0,STARLINK-4551,PAYLOAD,2023-05-13 19:57:58,15.08839762,0.0001093,53.2148,1.6135,83.699,276.4127,0.00013093,1.797e-05,0.0,0 STARLINK-4551,1 53575U 22101BA  23133.83193010  .00001797  00000-0  13093-3 0  9991,2 53575  53.2148   1.6135 0001093  83.6990 276.4127 15.08839762 40826,6917.881,95.438,540.502,538.99,0.0
53575.0,STARLINK-4551,PAYLOAD,2023-05-13 21:33:21,15.08842142,0.0001058,53.2159,1.3162,80.5109,279.6003,0.00016072,2.271e-05,0.0,0 STARLINK-4551,1 53575U 22101BA  23133.89816934  .00002271  00000-0  16072-3 0  9992,2 53575  53.2159   1.3162 0001058  80.5109 279.6003 15.08842142 41526,6917.874,95.437,540.471,539.007,0.0
53575.0,STARLINK-4551,PAYLOAD,2023-05-14 02:19:31,15.08848975,0.0001053,53.2159,0.4238,80.0769,280.0341,0.00032777,4.934e-05,0.0,0 STARLINK-4551,1 53575U 22101BA  23134.09688746  .00004934  00000-0  32777-3 0  9991,2 53575  53.2159   0.4238 0001053  80.0769 280.0341 15.08848975 40869,6917.853,95.437,540.446,538.99,0.0
53575.0,STARLINK-4551,PAYLOAD,2023-05-14 21:24:08,15.08849865,0.0001159,53.2171,356.8534,90.9558,269.1567,0.00044891,6.866e-05,0.0,0 STARLINK-4551,1 53575U 22101BA  23134.89176639  .00006866  00000-0  44891-3 0  9998,2 53575  53.2171 356.8534 0001159  90.9558 269.1567 15.08849865 40983,6917.85,95.437,540.517,538.913,0.0
